{"type": "FeatureCollection", "features": [ {"type": "Feature", "properties": {"norad_id": 67141, "name": "KUIPER-00187", "group": "last-30-days", "lat": -45.29779714686853, "lon": -70.82730866524004, "alt_km": 464.53286791134906, "timestamp": "2025-12-26T22:28:04.501935+00:00", "meta": {"OBJECT_NAME": "KUIPER-00187", "OBJECT_ID": "2025-301J", "EPOCH": "2025-12-26T15:09:39.644640", "MEAN_MOTION": 15.35854825, "ECCENTRICITY": 0.0004362, "INCLINATION": 51.8715, "RA_OF_ASC_NODE": 58.1127, "ARG_OF_PERICENTER": 117.8868, "MEAN_ANOMALY": 242.2561, "EPHEMERIS_TYPE": 0, "CLASSIFICATION_TYPE": "U", "NORAD_CAT_ID": 67141, "ELEMENT_SET_NO": 999, "REV_AT_EPOCH": 250, "BSTAR": 0.00061789, "MEAN_MOTION_DOT": 0.00021573, "MEAN_MOTION_DDOT": 0}, "tle": {"line1": "1 67141U 25301J   25360.63170885  .00021573  00000+0  61789-3 0  9995", "line2": "2 67141  51.8715  58.1127 0004362 117.8868 242.2561 15.35854825  2501"}}, "geometry": {"type": "Point", "coordinates": [-70.82730866524004, -45.29779714686853]}}, {"type": "Feature", "properties": {"norad_id": 67142, "name": "KUIPER-00188", "group": "last-30-days", "lat": -23.309897517641414, "lon": -103.5027018270941, "alt_km": 462.6261821175849, "timestamp": "2025-12-26T22:28:04.501945+00:00", "meta": {"OBJECT_NAME": "KUIPER-00188", "OBJECT_ID": "2025-301K", "EPOCH": "2025-12-26T18:25:54.545952", "MEAN_MOTION": 15.34963811, "ECCENTRICITY": 0.000739, "INCLINATION": 51.8696, "RA_OF_ASC_NODE": 57.5251, "ARG_OF_PERICENTER": 137.8145, "MEAN_ANOMALY": 222.341, "EPHEMERIS_TYPE": 0, "CLASSIFICATION_TYPE": "U", "NORAD_CAT_ID": 67142, "ELEMENT_SET_NO": 999, "REV_AT_EPOCH": 252, "BSTAR": 0.00086556, "MEAN_MOTION_DOT": 0.0002956, "MEAN_MOTION_DDOT": 0}, "tle": {"line1": "1 67142U 25301K   25360.76799243  .00029560  00000+0  86556-3 0  9998", "line2": "2 67142  51.8696  57.5251 0007390 137.8145 222.3410 15.34963811  2524"}}, "geometry": {"type": "Point", "coordinates": [-103.5027018270941, -23.309897517641414]}}, {"type": "Feature", "properties": {"norad_id": 67143, "name": "KUIPER-00191", "group": "last-30-days", "lat": -29.774921098659604, "lon": -96.59489881551372, "alt_km": 463.51228073746006, "timestamp": "2025-12-26T22:28:04.501955+00:00", "meta": {"OBJECT_NAME": "KUIPER-00191", "OBJECT_ID": "2025-301L", "EPOCH": "2025-12-26T18:23:36.698208", "MEAN_MOTION": 15.35195716, "ECCENTRICITY": 0.0006685, "INCLINATION": 51.8676, "RA_OF_ASC_NODE": 57.5158, "ARG_OF_PERICENTER": 134.41, "MEAN_ANOMALY": 225.7433, "EPHEMERIS_TYPE": 0, "CLASSIFICATION_TYPE": "U", "NORAD_CAT_ID": 67143, "ELEMENT_SET_NO": 999, "REV_AT_EPOCH": 255, "BSTAR": 0.00095155, "MEAN_MOTION_DOT": 0.00032788, "MEAN_MOTION_DDOT": 0}, "tle": {"line1": "1 67143U 25301L   25360.76639697  .00032788  00000+0  95155-3 0  9996", "line2": "2 67143  51.8676  57.5158 0006685 134.4100 225.7433 15.35195716  2556"}}, "geometry": {"type": "Point", "coordinates": [-96.59489881551372, -29.774921098659604]}}, {"type": "Feature", "properties": {"norad_id": 67144, "name": "KUIPER-00196", "group": "last-30-days", "lat": -48.87646568903587, "lon": -59.27332217710256, "alt_km": 464.6278925728129, "timestamp": "2025-12-26T22:28:04.501965+00:00", "meta": {"OBJECT_NAME": "KUIPER-00196", "OBJECT_ID": "2025-301M", "EPOCH": "2025-12-26T15:07:27.812928", "MEAN_MOTION": 15.36065728, "ECCENTRICITY": 0.0003949, "INCLINATION": 51.8732, "RA_OF_ASC_NODE": 58.1001, "ARG_OF_PERICENTER": 101.5114, "MEAN_ANOMALY": 258.6316, "EPHEMERIS_TYPE": 0, "CLASSIFICATION_TYPE": "U", "NORAD_CAT_ID": 67144, "ELEMENT_SET_NO": 999, "REV_AT_EPOCH": 250, "BSTAR": 0.00080514, "MEAN_MOTION_DOT": 0.00028446, "MEAN_MOTION_DDOT": 0}, "tle": {"line1": "1 67144U 25301M   25360.63018302  .00028446  00000+0  80514-3 0  9996", "line2": "2 67144  51.8732  58.1001 0003949 101.5114 258.6316 15.36065728  2504"}}, "geometry": {"type": "Point", "coordinates": [-59.27332217710256, -48.87646568903587]}}, {"type": "Feature", "properties": {"norad_id": 67145, "name": "KUIPER-00204", "group": "last-30-days", "lat": -51.76614083257302, "lon": -28.835477611824732, "alt_km": 462.2136226015209, "timestamp": "2025-12-26T22:28:04.501978+00:00", "meta": {"OBJECT_NAME": "KUIPER-00204", "OBJECT_ID": "2025-301N", "EPOCH": "2025-12-26T18:09:48.879936", "MEAN_MOTION": 15.36576996, "ECCENTRICITY": 0.0002113, "INCLINATION": 51.8752, "RA_OF_ASC_NODE": 57.4424, "ARG_OF_PERICENTER": 71.8314, "MEAN_ANOMALY": 288.2902, "EPHEMERIS_TYPE": 0, "CLASSIFICATION_TYPE": "U", "NORAD_CAT_ID": 67145, "ELEMENT_SET_NO": 999, "REV_AT_EPOCH": 263, "BSTAR": 0.00083708, "MEAN_MOTION_DOT": 0.00030087, "MEAN_MOTION_DDOT": 0}, "tle": {"line1": "1 67145U 25301N   25360.75681574  .00030087  00000+0  83708-3 0  9999", "line2": "2 67145  51.8752  57.4424 0002113  71.8314 288.2902 15.36576996  2639"}}, "geometry": {"type": "Point", "coordinates": [-28.835477611824732, -51.76614083257302]}}, {"type": "Feature", "properties": {"norad_id": 67146, "name": "KUIPER-00210", "group": "last-30-days", "lat": -0.34440256598020225, "lon": -122.95619184605972, "alt_km": 457.6540283263903, "timestamp": "2025-12-26T22:28:04.501989+00:00", "meta": {"OBJECT_NAME": "KUIPER-00210", "OBJECT_ID": "2025-301P", "EPOCH": "2025-12-26T18:33:32.598144", "MEAN_MOTION": 15.34205466, "ECCENTRICITY": 0.0010587, "INCLINATION": 51.8604, "RA_OF_ASC_NODE": 57.5575, "ARG_OF_PERICENTER": 151.9201, "MEAN_ANOMALY": 208.2357, "EPHEMERIS_TYPE": 0, "CLASSIFICATION_TYPE": "U", "NORAD_CAT_ID": 67146, "ELEMENT_SET_NO": 999, "REV_AT_EPOCH": 269, "BSTAR": 0.00085165, "MEAN_MOTION_DOT": 0.000284, "MEAN_MOTION_DDOT": 0}, "tle": {"line1": "1 67146U 25301P   25360.77329396  .00028400  00000+0  85165-3 0  9998", "line2": "2 67146  51.8604  57.5575 0010587 151.9201 208.2357 15.34205466  2694"}}, "geometry": {"type": "Point", "coordinates": [-122.95619184605972, -0.34440256598020225]}}, {"type": "Feature", "properties": {"norad_id": 67147, "name": "KUIPER-00221", "group": "last-30-days", "lat": -43.50360358582795, "lon": -75.15273079102127, "alt_km": 465.02682322568126, "timestamp": "2025-12-26T22:28:04.501999+00:00", "meta": {"OBJECT_NAME": "KUIPER-00221", "OBJECT_ID": "2025-301Q", "EPOCH": "2025-12-26T15:10:34.099968", "MEAN_MOTION": 15.35755171, "ECCENTRICITY": 0.0005019, "INCLINATION": 51.8722, "RA_OF_ASC_NODE": 58.1159, "ARG_OF_PERICENTER": 114.3031, "MEAN_ANOMALY": 245.848, "EPHEMERIS_TYPE": 0, "CLASSIFICATION_TYPE": "U", "NORAD_CAT_ID": 67147, "ELEMENT_SET_NO": 999, "REV_AT_EPOCH": 250, "BSTAR": 0.00057628, "MEAN_MOTION_DOT": 0.00020027, "MEAN_MOTION_DDOT": 0}, "tle": {"line1": "1 67147U 25301Q   25360.63233912  .00020027  00000+0  57628-3 0  9992", "line2": "2 67147  51.8722  58.1159 0005019 114.3031 245.8480 15.35755171  2507"}}, "geometry": {"type": "Point", "coordinates": [-75.15273079102127, -43.50360358582795]}}, {"type": "Feature", "properties": {"norad_id": 67148, "name": "KUIPER-00232", "group": "last-30-days", "lat": -50.87339663376757, "lon": -18.335371217993675, "alt_km": 461.33560274623505, "timestamp": "2025-12-26T22:28:04.502011+00:00", "meta": {"OBJECT_NAME": "KUIPER-00232", "OBJECT_ID": "2025-301R", "EPOCH": "2025-12-26T18:08:06.787104", "MEAN_MOTION": 15.367429, "ECCENTRICITY": 0.0002226, "INCLINATION": 51.8747, "RA_OF_ASC_NODE": 57.4386, "ARG_OF_PERICENTER": 49.9258, "MEAN_ANOMALY": 310.1923, "EPHEMERIS_TYPE": 0, "CLASSIFICATION_TYPE": "U", "NORAD_CAT_ID": 67148, "ELEMENT_SET_NO": 999, "REV_AT_EPOCH": 252, "BSTAR": 0.0010115, "MEAN_MOTION_DOT": 0.00036665, "MEAN_MOTION_DDOT": 0}, "tle": {"line1": "1 67148U 25301R   25360.75563411  .00036665  00000+0  10115-2 0  9990", "line2": "2 67148  51.8747  57.4386 0002226  49.9258 310.1923 15.36742900  2527"}}, "geometry": {"type": "Point", "coordinates": [-18.335371217993675, -50.87339663376757]}}, {"type": "Feature", "properties": {"norad_id": 67149, "name": "KUIPER-00241", "group": "last-30-days", "lat": -51.03259141333567, "lon": -47.23016428905313, "alt_km": 463.58954845493736, "timestamp": "2025-12-26T22:28:04.502022+00:00", "meta": {"OBJECT_NAME": "KUIPER-00241", "OBJECT_ID": "2025-301S", "EPOCH": "2025-12-26T16:39:05.730912", "MEAN_MOTION": 15.36284193, "ECCENTRICITY": 0.0002971, "INCLINATION": 51.8741, "RA_OF_ASC_NODE": 57.7727, "ARG_OF_PERICENTER": 101.8633, "MEAN_ANOMALY": 258.2686, "EPHEMERIS_TYPE": 0, "CLASSIFICATION_TYPE": "U", "NORAD_CAT_ID": 67149, "ELEMENT_SET_NO": 999, "REV_AT_EPOCH": 284, "BSTAR": 0.00081377, "MEAN_MOTION_DOT": 0.00028959, "MEAN_MOTION_DDOT": 0}, "tle": {"line1": "1 67149U 25301S   25360.69381633  .00028959  00000+0  81377-3 0  9994", "line2": "2 67149  51.8741  57.7727 0002971 101.8633 258.2686 15.36284193  2844"}}, "geometry": {"type": "Point", "coordinates": [-47.23016428905313, -51.03259141333567]}}, {"type": "Feature", "properties": {"norad_id": 67150, "name": "KUIPER-00245", "group": "last-30-days", "lat": -41.57588310139625, "lon": -79.17847436517785, "alt_km": 464.6150863312105, "timestamp": "2025-12-26T22:28:04.502034+00:00", "meta": {"OBJECT_NAME": "KUIPER-00245", "OBJECT_ID": "2025-301T", "EPOCH": "2025-12-26T15:11:27.858912", "MEAN_MOTION": 15.35659116, "ECCENTRICITY": 0.0005014, "INCLINATION": 51.8728, "RA_OF_ASC_NODE": 58.1185, "ARG_OF_PERICENTER": 122.7078, "MEAN_ANOMALY": 237.4392, "EPHEMERIS_TYPE": 0, "CLASSIFICATION_TYPE": "U", "NORAD_CAT_ID": 67150, "ELEMENT_SET_NO": 999, "REV_AT_EPOCH": 250, "BSTAR": 0.0005365, "MEAN_MOTION_DOT": 0.00018556, "MEAN_MOTION_DDOT": 0}, "tle": {"line1": "1 67150U 25301T   25360.63296133  .00018556  00000+0  53650-3 0  9995", "line2": "2 67150  51.8728  58.1185 0005014 122.7078 237.4392 15.35659116  2506"}}, "geometry": {"type": "Point", "coordinates": [-79.17847436517785, -41.57588310139625]}}]}